COSMOS 2433 (720)       
1 32275U 07052A   22334.46436726 -.00000053  00000+0  00000+0 0  9992
2 32275  66.0698 359.1637 0005180 245.3276 293.5911  2.13104243117507
COSMOS 2432 (719)       
1 32276U 07052B   22334.44089661 -.00000053  00000+0  00000+0 0  9993
2 32276  66.0837 359.2678 0010377 312.7980 155.9476  2.13103421117508
COSMOS 2434 (721)       
1 32393U 07065A   22334.61160500 -.00000014  00000+0  00000+0 0  9995
2 32393  64.3609 235.7584 0002926  69.7442 112.2604  2.13103202116216
COSMOS 2436 (723)       
1 32395U 07065C   22334.33011734 -.00000011  00000+0  00000+0 0  9997
2 32395  64.3687 235.8259 0016258   0.3271 101.4660  2.13102889116142
COSMOS 2456 (730)       
1 36111U 09070A   22334.72326586  .00000066  00000+0  00000+0 0  9991
2 36111  64.3995 115.3429 0001279 331.9808  98.9489  2.13099186100889
COSMOS 2457 (733)       
1 36112U 09070B   22334.56908829  .00000066  00000+0  00000+0 0  9990
2 36112  64.3836 115.2203 0006771 151.8877 289.3684  2.13101380100883
COSMOS 2460 (732)       
1 36402U 10007C   22334.86050431 -.00000052  00000+0  00000+0 0  9990
2 36402  65.9385 357.9110 0002230 250.8909  39.1580  2.13106465 99236
COSMOS 2464 (736)       
1 37139U 10041C   22334.45341356 -.00000012  00000+0  00000+0 0  9996
2 37139  63.9602 234.7567 0030142  10.0548 267.6160  2.13100922 95285
COSMOS 2476 (744)       
1 37867U 11064A   22334.35478089  .00000070  00000+0  00000+0 0  9996
2 37867  64.6850 116.7764 0020939 229.9609 185.1931  2.13101832 86221
COSMOS 2477 (745)       
1 37868U 11064B   22334.55575244  .00000070  00000+0  00000+0 0  9990
2 37868  64.6932 116.8365 0018137 230.3630 157.0030  2.13101659 86188
COSMOS 2475 (743)       
1 37869U 11064C   22334.62264098  .00000070  00000+0  00000+0 0  9991
2 37869  64.7008 116.8438 0021890 249.9025 146.9758  2.13101871 86190
COSMOS 2485 (747)       
1 39155U 13019A   22334.69744506  .00000071  00000+0  00000+0 0  9998
2 39155  64.8469 117.2288 0021462 226.1986 136.2376  2.13101881 74701
COSMOS 2492 (754)       
1 39620U 14012A   22334.86127150 -.00000052  00000+0  00000+0 0  9998
2 39620  65.8234 357.5694 0013676 312.3271 210.1142  2.13103274 67659
COSMOS 2500 (755)       
1 40001U 14032A   22334.54904068 -.00000052  00000+0  00000+0 0  9991
2 40001  65.7633 357.4283 0008328 214.1224 286.9697  2.13102400 65861
COSMOS 2501 (702K)      
1 40315U 14075A   22334.45371440 -.00000012  00000+0  00000+0 0  9994
2 40315  63.6664 235.3619 0017916 209.1138  27.6558  2.13101363 62262
COSMOS 2514 (751)       
1 41330U 16008A   22334.12505667 -.00000052  00000+0  00000+0 0  9998
2 41330  65.5625 357.0922 0012033 221.2766 138.6821  2.13102545 53027
COSMOS 2516 (753)       
1 41554U 16032A   22334.24741465 -.00000011  00000+0  00000+0 0  9999
2 41554  63.8917 235.6932 0014184 214.1744 145.7902  2.13106299 50631
COSMOS 2522 (752)       
1 42939U 17055A   22334.65967565 -.00000014  00000+0  00000+0 0  9992
2 42939  64.1272 236.1212 0007271 245.9605 284.3503  2.13102119 40397
COSMOS 2527 (756)       
1 43508U 18053A   22334.31124796  .00000072  00000+0  00000+0 0  9991
2 43508  65.0104 117.2762 0007655 212.6238  82.4091  2.13102529 34670
COSMOS 2529 (757)       
1 43687U 18086A   22334.38639111 -.00000013  00000+0  00000+0 0  9990
2 43687  64.3409 236.4909 0009468 269.3535   6.8022  2.13102162 31694
COSMOS 2534 (758)       
1 44299U 19030A   22334.66417256 -.00000015  00000+0  00000+0 0  9997
2 44299  64.4128 236.3822 0012111 289.9240 333.7471  2.13101921 27345
COSMOS 2544 (759)       
1 44850U 19088A   22334.65585476  .00000071  00000+0  16595+1 0  9990
2 44850  64.9949 117.1141 0010954 249.0524 353.6789  2.13102328 23115
COSMOS 2545 (760)       
1 45358U 20018A   22334.77545771 -.00000054  00000+0  00000+0 0  9991
2 45358  64.9008 357.5431 0011500 247.7061 296.0515  2.13102745 21079
COSMOS 2547 (705K)      
1 46805U 20075A   22334.47718738 -.00000013  00000+0  00000+0 0  9999
2 46805  64.6386 235.8624 0006811 247.1614 281.3167  2.13102971 16314
COSMOS 2557 (706K)      
1 52984U 22075A   22334.55605334 -.00000057  00000+0  10000-3 0  9995
2 52984  64.8068 359.7410 0013516 278.3950 187.9317  2.13101865  3119
COSMOS 2559 (707K)      
1 54031U 22130A   22334.45364690 -.00000057  00000+0  00000+0 0  9993
2 54031  64.7780 359.8824 0007684 228.3369 204.7758  2.13101486  1093
COSMOS 2564 (761)       
1 54377U 22161A   22334.59192306 -.00000013  00000+0  00000+0 0  9990
2 54377  64.7813 235.8636 0005880 270.3736  98.7342  2.12997465    41
